CTC2_L_00573001-01
1 67082U 23547TU  26037.47798611  .00000000  00000+0  00000-0 0  9994
2 67082  80.4000   0.0000 0000000   0.0000   0.0000 13.96770382    14
CTC2_L_00573002-01
1 67083U 26321AO  26037.47798611  .00000000  00000+0  00000-0 0  9998
2 67083  80.4000   6.4286 0000000   0.0000  25.7143 13.96770382    13
CTC2_L_00573003-01
1 67084U 23088EM  26037.47798611  .00000000  00000+0  00000-0 0  9996
2 67084  80.4000  12.8571 0000000   0.0000  51.4286 13.96770382    16
CTC2_L_00573004-01
1 67085U 23837MA  26037.47798611  .00000000  00000+0  00000-0 0  9999
2 67085  80.4000  19.2857 0000000   0.0000  77.1429 13.96770382    19
CTC2_L_00573005-01
1 67086U 25242IF  26037.47798611  .00000000  00000+0  00000-0 0  9992
2 67086  80.4000  25.7143 0000000   0.0000 102.8571 13.96770382    14
CTC2_L_00573006-01
1 67087U 22689GQ  26037.47798611  .00000000  00000+0  00000-0 0  9995
2 67087  80.4000  32.1429 0000000   0.0000 128.5714 13.96770382    18
CTC2_L_00573007-01
1 67088U 24181TS  26037.47798611  .00000000  00000+0  00000-0 0  9995
2 67088  80.4000  38.5714 0000000   0.0000 154.2857 13.96770382    10
CTC2_L_00573008-01
1 67089U 25979DJ  26037.47798611  .00000000  00000+0  00000-0 0  9992
2 67089  80.4000  45.0000 0000000   0.0000 180.0000 13.96770382    19
CTC2_L_00573009-01
1 67090U 25952XU  26037.47798611  .00000000  00000+0  00000-0 0  9995
2 67090  80.4000  51.4286 0000000   0.0000 205.7143 13.96770382    11
CTC2_L_00573010-01
1 67091U 23597JB  26037.47798611  .00000000  00000+0  00000-0 0  9999
2 67091  80.4000  57.8571 0000000   0.0000 231.4286 13.96770382    13
CTC2_L_00573011-01
1 67092U 25509DP  26037.47798611  .00000000  00000+0  00000-0 0  9995
2 67092  80.4000  64.2857 0000000   0.0000 257.1429 13.96770382    17
CTC2_L_00573012-01
1 67093U 22055CA  26037.47798611  .00000000  00000+0  00000-0 0  9999
2 67093  80.4000  70.7143 0000000   0.0000 282.8571 13.96770382    11
CTC2_L_00573013-01
1 67094U 24849UN  26037.47798611  .00000000  00000+0  00000-0 0  9993
2 67094  80.4000  77.1429 0000000   0.0000 308.5714 13.96770382    15
CTC2_L_00573014-01
1 67095U 25601IE  26037.47798611  .00000000  00000+0  00000-0 0  9991
2 67095  80.4000  83.5714 0000000   0.0000 334.2857 13.96770382    18
CTC2_L_00573015-01
1 67096U 22905AG  26037.47798611  .00000000  00000+0  00000-0 0  9996
2 67096  80.4000  90.0000 0000000   0.0000   0.0000 13.96770382    18
CTC2_L_00573016-01
1 67097U 23800UH  26037.47798611  .00000000  00000+0  00000-0 0  9992
2 67097  80.4000  96.4286 0000000   0.0000  25.7143 13.96770382    17
CTC2_L_00573017-01
1 67098U 24546CG  26037.47798611  .00000000  00000+0  00000-0 0  9991
2 67098  80.4000 102.8571 0000000   0.0000  51.4286 13.96770382    11
CTC2_L_00573018-01
1 67099U 22831TV  26037.47798611  .00000000  00000+0  00000-0 0  9997
2 67099  80.4000 109.2857 0000000   0.0000  77.1429 13.96770382    14
CTC2_L_00573019-01
1 67100U 22009GZ  26037.47798611  .00000000  00000+0  00000-0 0  9997
2 67100  80.4000 115.7143 0000000   0.0000 102.8571 13.96770382    11
CTC2_L_00573020-01
1 67101U 24474CW  26037.47798611  .00000000  00000+0  00000-0 0  9996
2 67101  80.4000 122.1429 0000000   0.0000 128.5714 13.96770382    15
CTC2_L_00573021-01
1 67102U 22273UR  26037.47798611  .00000000  00000+0  00000-0 0  9992
2 67102  80.4000 128.5714 0000000   0.0000 154.2857 13.96770382    17
CTC2_L_00573022-01
1 67103U 24548EQ  26037.47798611  .00000000  00000+0  00000-0 0  9990
2 67103  80.4000 135.0000 0000000   0.0000 180.0000 13.96770382    16
CTC2_L_00573023-01
1 67104U 22705TZ  26037.47798611  .00000000  00000+0  00000-0 0  9994
2 67104  80.4000 141.4286 0000000   0.0000 205.7143 13.96770382    17
CTC2_L_00573024-01
1 67105U 25163NJ  26037.47798611  .00000000  00000+0  00000-0 0  9996
2 67105  80.4000 147.8571 0000000   0.0000 231.4286 13.96770382    19
CTC2_L_00573025-01
1 67106U 25604YZ  26037.47798611  .00000000  00000+0  00000-0 0  9997
2 67106  80.4000 154.2857 0000000   0.0000 257.1429 13.96770382    13
CTC2_L_00573026-01
1 67107U 26671XG  26037.47798611  .00000000  00000+0  00000-0 0  9993
2 67107  80.4000 160.7143 0000000   0.0000 282.8571 13.96770382    17
CTC2_L_00573027-01
1 67108U 24369FI  26037.47798611  .00000000  00000+0  00000-0 0  9996
2 67108  80.4000 167.1429 0000000   0.0000 308.5714 13.96770382    11
CTC2_L_00573028-01
1 67109U 24465BL  26037.47798611  .00000000  00000+0  00000-0 0  9994
2 67109  80.4000 173.5714 0000000   0.0000 334.2857 13.96770382    14
CTC2_L_00573029-01
1 67110U 26714BF  26037.47798611  .00000000  00000+0  00000-0 0  9995
2 67110  80.4000 180.0000 0000000   0.0000   0.0000 13.96770382    15
CTC2_L_00573030-01
1 67111U 22360AX  26037.47798611  .00000000  00000+0  00000-0 0  9999
2 67111  80.4000 186.4286 0000000   0.0000  25.7143 13.96770382    14
CTC2_L_00573031-01
1 67112U 26335UR  26037.47798611  .00000000  00000+0  00000-0 0  9996
2 67112  80.4000 192.8571 0000000   0.0000  51.4286 13.96770382    17
CTC2_L_00573032-01
1 67113U 23435QN  26037.47798611  .00000000  00000+0  00000-0 0  9995
2 67113  80.4000 199.2857 0000000   0.0000  77.1429 13.96770382    10
CTC2_L_00573033-01
1 67114U 25189GI  26037.47798611  .00000000  00000+0  00000-0 0  9994
2 67114  80.4000 205.7143 0000000   0.0000 102.8571 13.96770382    16
CTC2_L_00573034-01
1 67115U 25288OU  26037.47798611  .00000000  00000+0  00000-0 0  9995
2 67115  80.4000 212.1429 0000000   0.0000 128.5714 13.96770382    10
CTC2_L_00573035-01
1 67116U 22512FF  26037.47798611  .00000000  00000+0  00000-0 0  9993
2 67116  80.4000 218.5714 0000000   0.0000 154.2857 13.96770382    12
CTC2_L_00573036-01
1 67117U 26456I   26037.47798611  .00000000  00000+0  00000-0 0  9995
2 67117  80.4000 225.0000 0000000   0.0000 180.0000 13.96770382    11
CTC2_L_00573037-01
1 67118U 22595BP  26037.47798611  .00000000  00000+0  00000-0 0  9996
2 67118  80.4000 231.4286 0000000   0.0000 205.7143 13.96770382    12
CTC2_L_00573038-01
1 67119U 22426KY  26037.47798611  .00000000  00000+0  00000-0 0  9990
2 67119  80.4000 237.8571 0000000   0.0000 231.4286 13.96770382    14
CTC2_L_00573039-01
1 67120U 26379PF  26037.47798611  .00000000  00000+0  00000-0 0  9993
2 67120  80.4000 244.2857 0000000   0.0000 257.1429 13.96770382    19
CTC2_L_00573040-01
1 67121U 24706QM  26037.47798611  .00000000  00000+0  00000-0 0  9996
2 67121  80.4000 250.7143 0000000   0.0000 282.8571 13.96770382    13
CTC2_L_00573041-01
1 67122U 26934ZA  26037.47798611  .00000000  00000+0  00000-0 0  9992
2 67122  80.4000 257.1429 0000000   0.0000 308.5714 13.96770382    17
CTC2_L_00573042-01
1 67123U 26315CS  26037.47798611  .00000000  00000+0  00000-0 0  9996
2 67123  80.4000 263.5714 0000000   0.0000 334.2857 13.96770382    10
CTC2_L_00573043-01
1 67124U 25705MB  26037.47798611  .00000000  00000+0  00000-0 0  9999
2 67124  80.4000 270.0000 0000000   0.0000   0.0000 13.96770382    10
CTC2_L_00573044-01
1 67125U 24363AF  26037.47798611  .00000000  00000+0  00000-0 0  9999
2 67125  80.4000 276.4286 0000000   0.0000  25.7143 13.96770382    19
CTC2_L_00573045-01
1 67126U 26942TK  26037.47798611  .00000000  00000+0  00000-0 0  9995
2 67126  80.4000 282.8571 0000000   0.0000  51.4286 13.96770382    12
CTC2_L_00573046-01
1 67127U 23995ZI  26037.47798611  .00000000  00000+0  00000-0 0  9991
2 67127  80.4000 289.2857 0000000   0.0000  77.1429 13.96770382    15
CTC2_L_00573047-01
1 67128U 25388BZ  26037.47798611  .00000000  00000+0  00000-0 0  9990
2 67128  80.4000 295.7143 0000000   0.0000 102.8571 13.96770382    10
CTC2_L_00573048-01
1 67129U 25542JV  26037.47798611  .00000000  00000+0  00000-0 0  9993
2 67129  80.4000 302.1429 0000000   0.0000 128.5714 13.96770382    15
CTC2_L_00573049-01
1 67130U 22600PH  26037.47798611  .00000000  00000+0  00000-0 0  9997
2 67130  80.4000 308.5714 0000000   0.0000 154.2857 13.96770382    18
CTC2_L_00573050-01
1 67131U 26938KH  26037.47798611  .00000000  00000+0  00000-0 0  9996
2 67131  80.4000 315.0000 0000000   0.0000 180.0000 13.96770382    17
CTC2_L_00573051-01
1 67132U 24063DS  26037.47798611  .00000000  00000+0  00000-0 0  9994
2 67132  80.4000 321.4286 0000000   0.0000 205.7143 13.96770382    18
CTC2_L_00573052-01
1 67133U 25341CD  26037.47798611  .00000000  00000+0  00000-0 0  9995
2 67133  80.4000 327.8571 0000000   0.0000 231.4286 13.96770382    10
CTC2_L_00573053-01
1 67134U 22352YM  26037.47798611  .00000000  00000+0  00000-0 0  9995
2 67134  80.4000 334.2857 0000000   0.0000 257.1429 13.96770382    14
CTC2_L_00573054-01
1 67135U 23223MJ  26037.47798611  .00000000  00000+0  00000-0 0  9994
2 67135  80.4000 340.7143 0000000   0.0000 282.8571 13.96770382    18
CTC2_L_00573055-01
1 67136U 24194WL  26037.47798611  .00000000  00000+0  00000-0 0  9993
2 67136  80.4000 347.1429 0000000   0.0000 308.5714 13.96770382    12
CTC2_L_00573056-01
1 67137U 24622YN  26037.47798611  .00000000  00000+0  00000-0 0  9990
2 67137  80.4000 353.5714 0000000   0.0000 334.2857 13.96770382    15
